[{"OBJECT_NAME":"ONEWEB-0151","OBJECT_ID":"2021-025AA","EPOCH":"2026-03-09T19:30:47.900160","MEAN_MOTION":13.13469771,"ECCENTRICITY":0.00018127,"INCLINATION":87.9037,"RA_OF_ASC_NODE":339.9892,"ARG_OF_PERICENTER":81.8028,"MEAN_ANOMALY":278.3307,"EPHEMERIS_TYPE":0,"CLASSIFICATION_TYPE":"U","NORAD_CAT_ID":48066,"ELEMENT_SET_NO":999,"REV_AT_EPOCH":24054,"BSTAR":0.00094826988,"MEAN_MOTION_DOT":3.59e-6,"MEAN_MOTION_DDOT":0},{"OBJECT_NAME":"COSMOS 457","OBJECT_ID":"1971-099A","EPOCH":"2026-03-09T17:22:41.928096","MEAN_MOTION":13.16113343,"ECCENTRICITY":0.00223107,"INCLINATION":74.0365,"RA_OF_ASC_NODE":159.0991,"ARG_OF_PERICENTER":81.8482,"MEAN_ANOMALY":32.906,"EPHEMERIS_TYPE":0,"CLASSIFICATION_TYPE":"U","NORAD_CAT_ID":5614,"ELEMENT_SET_NO":999,"REV_AT_EPOCH":60847,"BSTAR":0.00099329993,"MEAN_MOTION_DOT":3.59e-6,"MEAN_MOTION_DDOT":0}]
